<?xml version="1.0" encoding="UTF-8"?>
<gpx creator="StravaGPX" version="1.1" xmlns="http://www.topografix.com/GPX/1/1" xmlns:xsi="http://www.w3.org/2001/XMLSchema-instance" xsi:schemaLocation="http://www.topografix.com/GPX/1/1 http://www.topografix.com/GPX/1/1/gpx.xsd">
 <trk>
  <name>Soča outdoor vertikal</name>
  <type>running</type>
  <trkseg>
   <trkpt lat="46.1825080" lon="13.7329470">
    <ele>197.5</ele>
   </trkpt>
   <trkpt lat="46.1825080" lon="13.7329470">
    <ele>197.5</ele>
   </trkpt>
   <trkpt lat="46.1825080" lon="13.7329450">
    <ele>197.5</ele>
   </trkpt>
   <trkpt lat="46.1825100" lon="13.7329450">
    <ele>197.5</ele>
   </trkpt>
   <trkpt lat="46.1825100" lon="13.7329430">
    <ele>197.5</ele>
   </trkpt>
   <trkpt lat="46.1825130" lon="13.7329500">
    <ele>197.5</ele>
   </trkpt>
   <trkpt lat="46.1825470" lon="13.7329830">
    <ele>197.6</ele>
   </trkpt>
   <trkpt lat="46.1825870" lon="13.7330100">
    <ele>197.7</ele>
   </trkpt>
   <trkpt lat="46.1826270" lon="13.7330280">
    <ele>197.8</ele>
   </trkpt>
   <trkpt lat="46.1826680" lon="13.7330400">
    <ele>197.8</ele>
   </trkpt>
   <trkpt lat="46.1827080" lon="13.7330430">
    <ele>198.0</ele>
   </trkpt>
   <trkpt lat="46.1827470" lon="13.7330480">
    <ele>198.1</ele>
   </trkpt>
   <trkpt lat="46.1827880" lon="13.7330550">
    <ele>198.2</ele>
   </trkpt>
   <trkpt lat="46.1828330" lon="13.7330630">
    <ele>198.4</ele>
   </trkpt>
   <trkpt lat="46.1828700" lon="13.7330680">
    <ele>198.6</ele>
   </trkpt>
   <trkpt lat="46.1829250" lon="13.7330620">
    <ele>198.8</ele>
   </trkpt>
   <trkpt lat="46.1829670" lon="13.7330470">
    <ele>198.9</ele>
   </trkpt>
   <trkpt lat="46.1830050" lon="13.7330350">
    <ele>199.0</ele>
   </trkpt>
   <trkpt lat="46.1830450" lon="13.7330270">
    <ele>199.1</ele>
   </trkpt>
   <trkpt lat="46.1830730" lon="13.7330220">
    <ele>199.2</ele>
   </trkpt>
   <trkpt lat="46.1831200" lon="13.7329980">
    <ele>199.3</ele>
   </trkpt>
   <trkpt lat="46.1831680" lon="13.7329780">
    <ele>199.5</ele>
   </trkpt>
   <trkpt lat="46.1832080" lon="13.7329580">
    <ele>199.6</ele>
   </trkpt>
   <trkpt lat="46.1832380" lon="13.7329420">
    <ele>199.7</ele>
   </trkpt>
   <trkpt lat="46.1832820" lon="13.7329350">
    <ele>199.8</ele>
   </trkpt>
   <trkpt lat="46.1833180" lon="13.7329250">
    <ele>199.8</ele>
   </trkpt>
   <trkpt lat="46.1833570" lon="13.7329170">
    <ele>199.9</ele>
   </trkpt>
   <trkpt lat="46.1833930" lon="13.7329130">
    <ele>200.0</ele>
   </trkpt>
   <trkpt lat="46.1834320" lon="13.7329100">
    <ele>200.1</ele>
   </trkpt>
   <trkpt lat="46.1834720" lon="13.7329050">
    <ele>200.2</ele>
   </trkpt>
   <trkpt lat="46.1835120" lon="13.7328930">
    <ele>200.3</ele>
   </trkpt>
   <trkpt lat="46.1835480" lon="13.7328820">
    <ele>200.5</ele>
   </trkpt>
   <trkpt lat="46.1835780" lon="13.7328700">
    <ele>200.6</ele>
   </trkpt>
   <trkpt lat="46.1836230" lon="13.7328580">
    <ele>200.7</ele>
   </trkpt>
   <trkpt lat="46.1836600" lon="13.7328500">
    <ele>200.9</ele>
   </trkpt>
   <trkpt lat="46.1836920" lon="13.7328370">
    <ele>201.0</ele>
   </trkpt>
   <trkpt lat="46.1837230" lon="13.7328180">
    <ele>201.1</ele>
   </trkpt>
   <trkpt lat="46.1837530" lon="13.7327980">
    <ele>201.2</ele>
   </trkpt>
   <trkpt lat="46.1837830" lon="13.7327780">
    <ele>201.4</ele>
   </trkpt>
   <trkpt lat="46.1838130" lon="13.7327550">
    <ele>201.5</ele>
   </trkpt>
   <trkpt lat="46.1838400" lon="13.7327280">
    <ele>201.6</ele>
   </trkpt>
   <trkpt lat="46.1838630" lon="13.7326950">
    <ele>201.7</ele>
   </trkpt>
   <trkpt lat="46.1838830" lon="13.7326570">
    <ele>201.9</ele>
   </trkpt>
   <trkpt lat="46.1839020" lon="13.7326200">
    <ele>202.0</ele>
   </trkpt>
   <trkpt lat="46.1839170" lon="13.7325830">
    <ele>202.1</ele>
   </trkpt>
   <trkpt lat="46.1839330" lon="13.7325500">
    <ele>202.2</ele>
   </trkpt>
   <trkpt lat="46.1839550" lon="13.7325170">
    <ele>202.3</ele>
   </trkpt>
   <trkpt lat="46.1839770" lon="13.7324680">
    <ele>202.5</ele>
   </trkpt>
   <trkpt lat="46.1839880" lon="13.7324220">
    <ele>202.6</ele>
   </trkpt>
   <trkpt lat="46.1840030" lon="13.7323750">
    <ele>202.7</ele>
   </trkpt>
   <trkpt lat="46.1840120" lon="13.7323280">
    <ele>202.9</ele>
   </trkpt>
   <trkpt lat="46.1840180" lon="13.7322870">
    <ele>203.0</ele>
   </trkpt>
   <trkpt lat="46.1840270" lon="13.7322430">
    <ele>203.0</ele>
   </trkpt>
   <trkpt lat="46.1840370" lon="13.7322000">
    <ele>203.1</ele>
   </trkpt>
   <trkpt lat="46.1840480" lon="13.7321500">
    <ele>203.1</ele>
   </trkpt>
   <trkpt lat="46.1840620" lon="13.7321080">
    <ele>203.2</ele>
   </trkpt>
   <trkpt lat="46.1840780" lon="13.7320630">
    <ele>203.2</ele>
   </trkpt>
   <trkpt lat="46.1841000" lon="13.7320170">
    <ele>203.3</ele>
   </trkpt>
   <trkpt lat="46.1841230" lon="13.7319730">
    <ele>203.4</ele>
   </trkpt>
   <trkpt lat="46.1841450" lon="13.7319370">
    <ele>203.4</ele>
   </trkpt>
   <trkpt lat="46.1841680" lon="13.7318980">
    <ele>203.5</ele>
   </trkpt>
   <trkpt lat="46.1841900" lon="13.7318720">
    <ele>203.5</ele>
   </trkpt>
   <trkpt lat="46.1842200" lon="13.7318300">
    <ele>203.6</ele>
   </trkpt>
   <trkpt lat="46.1842480" lon="13.7317920">
    <ele>203.7</ele>
   </trkpt>
   <trkpt lat="46.1842700" lon="13.7317630">
    <ele>203.7</ele>
   </trkpt>
   <trkpt lat="46.1843030" lon="13.7317280">
    <ele>203.8</ele>
   </trkpt>
   <trkpt lat="46.1843300" lon="13.7317050">
    <ele>203.9</ele>
   </trkpt>
   <trkpt lat="46.1843620" lon="13.7316780">
    <ele>203.9</ele>
   </trkpt>
   <trkpt lat="46.1843870" lon="13.7316570">
    <ele>204.0</ele>
   </trkpt>
   <trkpt lat="46.1844230" lon="13.7316220">
    <ele>204.0</ele>
   </trkpt>
   <trkpt lat="46.1844520" lon="13.7315900">
    <ele>204.1</ele>
   </trkpt>
   <trkpt lat="46.1844820" lon="13.7315600">
    <ele>204.2</ele>
   </trkpt>
   <trkpt lat="46.1845150" lon="13.7315320">
    <ele>204.2</ele>
   </trkpt>
   <trkpt lat="46.1845420" lon="13.7315100">
    <ele>204.3</ele>
   </trkpt>
   <trkpt lat="46.1845820" lon="13.7314800">
    <ele>204.3</ele>
   </trkpt>
   <trkpt lat="46.1846150" lon="13.7314550">
    <ele>204.4</ele>
   </trkpt>
   <trkpt lat="46.1846500" lon="13.7314320">
    <ele>204.4</ele>
   </trkpt>
   <trkpt lat="46.1846800" lon="13.7314100">
    <ele>204.5</ele>
   </trkpt>
   <trkpt lat="46.1847030" lon="13.7313900">
    <ele>204.5</ele>
   </trkpt>
   <trkpt lat="46.1847320" lon="13.7313620">
    <ele>204.6</ele>
   </trkpt>
   <trkpt lat="46.1847670" lon="13.7313400">
    <ele>204.6</ele>
   </trkpt>
   <trkpt lat="46.1848030" lon="13.7313120">
    <ele>204.7</ele>
   </trkpt>
   <trkpt lat="46.1848370" lon="13.7312800">
    <ele>204.7</ele>
   </trkpt>
   <trkpt lat="46.1848650" lon="13.7312380">
    <ele>204.8</ele>
   </trkpt>
   <trkpt lat="46.1848970" lon="13.7311970">
    <ele>204.8</ele>
   </trkpt>
   <trkpt lat="46.1849200" lon="13.7311630">
    <ele>204.9</ele>
   </trkpt>
   <trkpt lat="46.1849430" lon="13.7311320">
    <ele>204.9</ele>
   </trkpt>
   <trkpt lat="46.1849670" lon="13.7310870">
    <ele>205.0</ele>
   </trkpt>
   <trkpt lat="46.1849950" lon="13.7310580">
    <ele>205.0</ele>
   </trkpt>
   <trkpt lat="46.1850250" lon="13.7310300">
    <ele>205.1</ele>
   </trkpt>
   <trkpt lat="46.1850550" lon="13.7309950">
    <ele>205.2</ele>
   </trkpt>
   <trkpt lat="46.1850830" lon="13.7309580">
    <ele>205.2</ele>
   </trkpt>
   <trkpt lat="46.1851100" lon="13.7309250">
    <ele>205.3</ele>
   </trkpt>
   <trkpt lat="46.1851350" lon="13.7308970">
    <ele>205.3</ele>
   </trkpt>
   <trkpt lat="46.1851600" lon="13.7308680">
    <ele>205.4</ele>
   </trkpt>
   <trkpt lat="46.1851900" lon="13.7308350">
    <ele>205.4</ele>
   </trkpt>
   <trkpt lat="46.1852220" lon="13.7308030">
    <ele>205.5</ele>
   </trkpt>
   <trkpt lat="46.1852550" lon="13.7307730">
    <ele>205.6</ele>
   </trkpt>
   <trkpt lat="46.1852850" lon="13.7307430">
    <ele>205.6</ele>
   </trkpt>
   <trkpt lat="46.1853170" lon="13.7307150">
    <ele>205.7</ele>
   </trkpt>
   <trkpt lat="46.1853470" lon="13.7306830">
    <ele>205.7</ele>
   </trkpt>
   <trkpt lat="46.1853780" lon="13.7306480">
    <ele>205.8</ele>
   </trkpt>
   <trkpt lat="46.1854080" lon="13.7306170">
    <ele>205.8</ele>
   </trkpt>
   <trkpt lat="46.1854380" lon="13.7305880">
    <ele>205.8</ele>
   </trkpt>
   <trkpt lat="46.1854680" lon="13.7305600">
    <ele>205.9</ele>
   </trkpt>
   <trkpt lat="46.1854980" lon="13.7305280">
    <ele>205.9</ele>
   </trkpt>
   <trkpt lat="46.1855280" lon="13.7304970">
    <ele>205.9</ele>
   </trkpt>
   <trkpt lat="46.1855580" lon="13.7304680">
    <ele>206.0</ele>
   </trkpt>
   <trkpt lat="46.1855880" lon="13.7304400">
    <ele>206.0</ele>
   </trkpt>
   <trkpt lat="46.1856170" lon="13.7304100">
    <ele>206.1</ele>
   </trkpt>
   <trkpt lat="46.1856450" lon="13.7303780">
    <ele>206.1</ele>
   </trkpt>
   <trkpt lat="46.1856750" lon="13.7303420">
    <ele>206.2</ele>
   </trkpt>
   <trkpt lat="46.1857030" lon="13.7303030">
    <ele>206.3</ele>
   </trkpt>
   <trkpt lat="46.1857320" lon="13.7302630">
    <ele>206.3</ele>
   </trkpt>
   <trkpt lat="46.1857580" lon="13.7302220">
    <ele>206.4</ele>
   </trkpt>
   <trkpt lat="46.1857850" lon="13.7301820">
    <ele>206.4</ele>
   </trkpt>
   <trkpt lat="46.1858150" lon="13.7301470">
    <ele>206.5</ele>
   </trkpt>
   <trkpt lat="46.1858430" lon="13.7301130">
    <ele>206.5</ele>
   </trkpt>
   <trkpt lat="46.1858700" lon="13.7300770">
    <ele>206.6</ele>
   </trkpt>
   <trkpt lat="46.1858970" lon="13.7300420">
    <ele>206.6</ele>
   </trkpt>
   <trkpt lat="46.1859250" lon="13.7300070">
    <ele>206.7</ele>
   </trkpt>
   <trkpt lat="46.1859530" lon="13.7299720">
    <ele>206.7</ele>
   </trkpt>
   <trkpt lat="46.1859850" lon="13.7299330">
    <ele>206.8</ele>
   </trkpt>
   <trkpt lat="46.1860130" lon="13.7298980">
    <ele>206.8</ele>
   </trkpt>
   <trkpt lat="46.1860420" lon="13.7298620">
    <ele>206.9</ele>
   </trkpt>
   <trkpt lat="46.1860670" lon="13.7298180">
    <ele>206.9</ele>
   </trkpt>
   <trkpt lat="46.1860920" lon="13.7297770">
    <ele>206.9</ele>
   </trkpt>
   <trkpt lat="46.1861200" lon="13.7297350">
    <ele>206.9</ele>
   </trkpt>
   <trkpt lat="46.1861430" lon="13.7296920">
    <ele>206.9</ele>
   </trkpt>
   <trkpt lat="46.1861650" lon="13.7296530">
    <ele>206.9</ele>
   </trkpt>
   <trkpt lat="46.1861850" lon="13.7296150">
    <ele>207.0</ele>
   </trkpt>
   <trkpt lat="46.1862070" lon="13.7295730">
    <ele>207.0</ele>
   </trkpt>
   <trkpt lat="46.1862330" lon="13.7295320">
    <ele>207.0</ele>
   </trkpt>
   <trkpt lat="46.1862570" lon="13.7294880">
    <ele>207.0</ele>
   </trkpt>
   <trkpt lat="46.1862770" lon="13.7294450">
    <ele>207.0</ele>
   </trkpt>
   <trkpt lat="46.1862930" lon="13.7293980">
    <ele>207.0</ele>
   </trkpt>
   <trkpt lat="46.1863120" lon="13.7293520">
    <ele>207.0</ele>
   </trkpt>
   <trkpt lat="46.1863280" lon="13.7293080">
    <ele>207.0</ele>
   </trkpt>
   <trkpt lat="46.1863470" lon="13.7292650">
    <ele>207.1</ele>
   </trkpt>
   <trkpt lat="46.1863530" lon="13.7292350">
    <ele>207.1</ele>
   </trkpt>
   <trkpt lat="46.1863630" lon="13.7291780">
    <ele>207.1</ele>
   </trkpt>
   <trkpt lat="46.1863750" lon="13.7291280">
    <ele>207.1</ele>
   </trkpt>
   <trkpt lat="46.1863870" lon="13.7290820">
    <ele>207.1</ele>
   </trkpt>
   <trkpt lat="46.1863970" lon="13.7290370">
    <ele>207.1</ele>
   </trkpt>
   <trkpt lat="46.1864070" lon="13.7289900">
    <ele>207.1</ele>
   </trkpt>
   <trkpt lat="46.1864150" lon="13.7289430">
    <ele>207.1</ele>
   </trkpt>
   <trkpt lat="46.1864250" lon="13.7288930">
    <ele>207.1</ele>
   </trkpt>
   <trkpt lat="46.1864330" lon="13.7288420">
    <ele>207.1</ele>
   </trkpt>
   <trkpt lat="46.1864380" lon="13.7288000">
    <ele>207.1</ele>
   </trkpt>
   <trkpt lat="46.1864430" lon="13.7287370">
    <ele>207.1</ele>
   </trkpt>
   <trkpt lat="46.1864430" lon="13.7286820">
    <ele>207.1</ele>
   </trkpt>
   <trkpt lat="46.1864430" lon="13.7286250">
    <ele>207.1</ele>
   </trkpt>
   <trkpt lat="46.1864420" lon="13.7285780">
    <ele>207.1</ele>
   </trkpt>
   <trkpt lat="46.1864420" lon="13.7285100">
    <ele>207.1</ele>
   </trkpt>
   <trkpt lat="46.1864400" lon="13.7284550">
    <ele>207.1</ele>
   </trkpt>
   <trkpt lat="46.1864380" lon="13.7284000">
    <ele>207.1</ele>
   </trkpt>
   <trkpt lat="46.1864350" lon="13.7283470">
    <ele>207.1</ele>
   </trkpt>
   <trkpt lat="46.1864300" lon="13.7282950">
    <ele>207.1</ele>
   </trkpt>
   <trkpt lat="46.1864280" lon="13.7282420">
    <ele>207.1</ele>
   </trkpt>
   <trkpt lat="46.1864250" lon="13.7281850">
    <ele>207.1</ele>
   </trkpt>
   <trkpt lat="46.1864200" lon="13.7281320">
    <ele>207.2</ele>
   </trkpt>
   <trkpt lat="46.1864120" lon="13.7280920">
    <ele>207.2</ele>
   </trkpt>
   <trkpt lat="46.1864050" lon="13.7280300">
    <ele>207.2</ele>
   </trkpt>
   <trkpt lat="46.1863980" lon="13.7279800">
    <ele>207.2</ele>
   </trkpt>
   <trkpt lat="46.1863920" lon="13.7279280">
    <ele>207.2</ele>
   </trkpt>
   <trkpt lat="46.1863830" lon="13.7278780">
    <ele>207.2</ele>
   </trkpt>
   <trkpt lat="46.1863750" lon="13.7278250">
    <ele>207.2</ele>
   </trkpt>
   <trkpt lat="46.1863670" lon="13.7277820">
    <ele>207.3</ele>
   </trkpt>
   <trkpt lat="46.1863580" lon="13.7277150">
    <ele>207.3</ele>
   </trkpt>
   <trkpt lat="46.1863530" lon="13.7276600">
    <ele>207.4</ele>
   </trkpt>
   <trkpt lat="46.1863530" lon="13.7276080">
    <ele>207.4</ele>
   </trkpt>
   <trkpt lat="46.1863550" lon="13.7275570">
    <ele>207.5</ele>
   </trkpt>
   <trkpt lat="46.1863580" lon="13.7275050">
    <ele>207.5</ele>
   </trkpt>
   <trkpt lat="46.1863650" lon="13.7274530">
    <ele>207.6</ele>
   </trkpt>
   <trkpt lat="46.1863770" lon="13.7274070">
    <ele>207.6</ele>
   </trkpt>
   <trkpt lat="46.1863870" lon="13.7273620">
    <ele>207.7</ele>
   </trkpt>
   <trkpt lat="46.1863950" lon="13.7273100">
    <ele>207.7</ele>
   </trkpt>
   <trkpt lat="46.1864030" lon="13.7272620">
    <ele>207.8</ele>
   </trkpt>
   <trkpt lat="46.1864130" lon="13.7272100">
    <ele>207.8</ele>
   </trkpt>
   <trkpt lat="46.1864230" lon="13.7271620">
    <ele>207.9</ele>
   </trkpt>
   <trkpt lat="46.1864330" lon="13.7271150">
    <ele>208.0</ele>
   </trkpt>
   <trkpt lat="46.1864450" lon="13.7270720">
    <ele>208.0</ele>
   </trkpt>
   <trkpt lat="46.1864570" lon="13.7270300">
    <ele>208.1</ele>
   </trkpt>
   <trkpt lat="46.1864670" lon="13.7269900">
    <ele>208.1</ele>
   </trkpt>
   <trkpt lat="46.1864770" lon="13.7269500">
    <ele>208.2</ele>
   </trkpt>
   <trkpt lat="46.1864850" lon="13.7269120">
    <ele>208.3</ele>
   </trkpt>
   <trkpt lat="46.1864900" lon="13.7268730">
    <ele>208.3</ele>
   </trkpt>
   <trkpt lat="46.1864950" lon="13.7268330">
    <ele>208.4</ele>
   </trkpt>
   <trkpt lat="46.1865000" lon="13.7267950">
    <ele>208.4</ele>
   </trkpt>
   <trkpt lat="46.1865080" lon="13.7267550">
    <ele>208.5</ele>
   </trkpt>
   <trkpt lat="46.1865170" lon="13.7267120">
    <ele>208.6</ele>
   </trkpt>
   <trkpt lat="46.1865230" lon="13.7266670">
    <ele>208.6</ele>
   </trkpt>
   <trkpt lat="46.1865270" lon="13.7266230">
    <ele>208.7</ele>
   </trkpt>
   <trkpt lat="46.1865300" lon="13.7265720">
    <ele>208.8</ele>
   </trkpt>
   <trkpt lat="46.1865300" lon="13.7265170">
    <ele>208.9</ele>
   </trkpt>
   <trkpt lat="46.1865300" lon="13.7264580">
    <ele>209.0</ele>
   </trkpt>
   <trkpt lat="46.1865280" lon="13.7263950">
    <ele>209.1</ele>
   </trkpt>
   <trkpt lat="46.1865270" lon="13.7263330">
    <ele>209.2</ele>
   </trkpt>
   <trkpt lat="46.1865230" lon="13.7262730">
    <ele>209.4</ele>
   </trkpt>
   <trkpt lat="46.1865200" lon="13.7262130">
    <ele>209.5</ele>
   </trkpt>
   <trkpt lat="46.1865180" lon="13.7261550">
    <ele>209.7</ele>
   </trkpt>
   <trkpt lat="46.1865170" lon="13.7260950">
    <ele>209.9</ele>
   </trkpt>
   <trkpt lat="46.1865150" lon="13.7260330">
    <ele>210.1</ele>
   </trkpt>
   <trkpt lat="46.1865130" lon="13.7259700">
    <ele>210.3</ele>
   </trkpt>
   <trkpt lat="46.1865150" lon="13.7259180">
    <ele>210.4</ele>
   </trkpt>
   <trkpt lat="46.1865120" lon="13.7258480">
    <ele>210.7</ele>
   </trkpt>
   <trkpt lat="46.1865100" lon="13.7257920">
    <ele>210.8</ele>
   </trkpt>
   <trkpt lat="46.1865080" lon="13.7257350">
    <ele>211.0</ele>
   </trkpt>
   <trkpt lat="46.1865080" lon="13.7256770">
    <ele>211.2</ele>
   </trkpt>
   <trkpt lat="46.1865070" lon="13.7256180">
    <ele>211.4</ele>
   </trkpt>
   <trkpt lat="46.1865070" lon="13.7255620">
    <ele>211.6</ele>
   </trkpt>
   <trkpt lat="46.1865080" lon="13.7255050">
    <ele>211.8</ele>
   </trkpt>
   <trkpt lat="46.1865100" lon="13.7254450">
    <ele>212.1</ele>
   </trkpt>
   <trkpt lat="46.1865070" lon="13.7253850">
    <ele>212.3</ele>
   </trkpt>
   <trkpt lat="46.1865080" lon="13.7253220">
    <ele>212.5</ele>
   </trkpt>
   <trkpt lat="46.1865080" lon="13.7252620">
    <ele>212.7</ele>
   </trkpt>
   <trkpt lat="46.1865070" lon="13.7252020">
    <ele>213.0</ele>
   </trkpt>
   <trkpt lat="46.1865020" lon="13.7251430">
    <ele>213.2</ele>
   </trkpt>
   <trkpt lat="46.1864950" lon="13.7250850">
    <ele>213.4</ele>
   </trkpt>
   <trkpt lat="46.1864850" lon="13.7250280">
    <ele>213.6</ele>
   </trkpt>
   <trkpt lat="46.1864750" lon="13.7249720">
    <ele>213.8</ele>
   </trkpt>
   <trkpt lat="46.1864650" lon="13.7249130">
    <ele>214.0</ele>
   </trkpt>
   <trkpt lat="46.1864600" lon="13.7248550">
    <ele>214.2</ele>
   </trkpt>
   <trkpt lat="46.1864630" lon="13.7247970">
    <ele>214.4</ele>
   </trkpt>
   <trkpt lat="46.1864750" lon="13.7247550">
    <ele>214.9</ele>
   </trkpt>
   <trkpt lat="46.1864980" lon="13.7247280">
    <ele>215.4</ele>
   </trkpt>
   <trkpt lat="46.1865230" lon="13.7247200">
    <ele>215.8</ele>
   </trkpt>
   <trkpt lat="46.1865470" lon="13.7247130">
    <ele>216.3</ele>
   </trkpt>
   <trkpt lat="46.1865700" lon="13.7247050">
    <ele>216.7</ele>
   </trkpt>
   <trkpt lat="46.1865880" lon="13.7246950">
    <ele>217.0</ele>
   </trkpt>
   <trkpt lat="46.1866050" lon="13.7246770">
    <ele>217.4</ele>
   </trkpt>
   <trkpt lat="46.1866200" lon="13.7246500">
    <ele>217.8</ele>
   </trkpt>
   <trkpt lat="46.1866320" lon="13.7246220">
    <ele>218.2</ele>
   </trkpt>
   <trkpt lat="46.1866470" lon="13.7245900">
    <ele>218.7</ele>
   </trkpt>
   <trkpt lat="46.1866620" lon="13.7245550">
    <ele>219.1</ele>
   </trkpt>
   <trkpt lat="46.1866720" lon="13.7245170">
    <ele>219.6</ele>
   </trkpt>
   <trkpt lat="46.1866770" lon="13.7244800">
    <ele>220.1</ele>
   </trkpt>
   <trkpt lat="46.1866750" lon="13.7244420">
    <ele>220.5</ele>
   </trkpt>
   <trkpt lat="46.1866650" lon="13.7244100">
    <ele>220.9</ele>
   </trkpt>
   <trkpt lat="46.1866520" lon="13.7243830">
    <ele>221.3</ele>
   </trkpt>
   <trkpt lat="46.1866350" lon="13.7243400">
    <ele>221.9</ele>
   </trkpt>
   <trkpt lat="46.1866250" lon="13.7242980">
    <ele>222.4</ele>
   </trkpt>
   <trkpt lat="46.1866230" lon="13.7242580">
    <ele>222.8</ele>
   </trkpt>
   <trkpt lat="46.1866270" lon="13.7242080">
    <ele>223.3</ele>
   </trkpt>
   <trkpt lat="46.1866420" lon="13.7241520">
    <ele>224.0</ele>
   </trkpt>
   <trkpt lat="46.1866600" lon="13.7241020">
    <ele>224.5</ele>
   </trkpt>
   <trkpt lat="46.1866820" lon="13.7240520">
    <ele>225.1</ele>
   </trkpt>
   <trkpt lat="46.1867100" lon="13.7240230">
    <ele>225.6</ele>
   </trkpt>
   <trkpt lat="46.1867430" lon="13.7240280">
    <ele>226.0</ele>
   </trkpt>
   <trkpt lat="46.1867730" lon="13.7240380">
    <ele>226.6</ele>
   </trkpt>
   <trkpt lat="46.1867970" lon="13.7240630">
    <ele>226.9</ele>
   </trkpt>
   <trkpt lat="46.1868100" lon="13.7241050">
    <ele>227.2</ele>
   </trkpt>
   <trkpt lat="46.1868180" lon="13.7241350">
    <ele>227.4</ele>
   </trkpt>
   <trkpt lat="46.1868380" lon="13.7241820">
    <ele>227.8</ele>
   </trkpt>
   <trkpt lat="46.1868450" lon="13.7242200">
    <ele>228.2</ele>
   </trkpt>
   <trkpt lat="46.1868650" lon="13.7242530">
    <ele>228.5</ele>
   </trkpt>
   <trkpt lat="46.1868970" lon="13.7242820">
    <ele>229.0</ele>
   </trkpt>
   <trkpt lat="46.1869170" lon="13.7243180">
    <ele>229.4</ele>
   </trkpt>
   <trkpt lat="46.1869420" lon="13.7243580">
    <ele>229.8</ele>
   </trkpt>
   <trkpt lat="46.1869650" lon="13.7244000">
    <ele>230.3</ele>
   </trkpt>
   <trkpt lat="46.1869800" lon="13.7244430">
    <ele>230.7</ele>
   </trkpt>
   <trkpt lat="46.1870050" lon="13.7244850">
    <ele>231.2</ele>
   </trkpt>
   <trkpt lat="46.1870120" lon="13.7245200">
    <ele>231.5</ele>
   </trkpt>
   <trkpt lat="46.1870200" lon="13.7245550">
    <ele>231.9</ele>
   </trkpt>
   <trkpt lat="46.1870320" lon="13.7245920">
    <ele>232.3</ele>
   </trkpt>
   <trkpt lat="46.1870420" lon="13.7246330">
    <ele>232.7</ele>
   </trkpt>
   <trkpt lat="46.1870520" lon="13.7246830">
    <ele>233.2</ele>
   </trkpt>
   <trkpt lat="46.1870570" lon="13.7247330">
    <ele>233.8</ele>
   </trkpt>
   <trkpt lat="46.1870600" lon="13.7247770">
    <ele>234.2</ele>
   </trkpt>
   <trkpt lat="46.1870580" lon="13.7248150">
    <ele>234.6</ele>
   </trkpt>
   <trkpt lat="46.1870580" lon="13.7248530">
    <ele>235.1</ele>
   </trkpt>
   <trkpt lat="46.1870570" lon="13.7248950">
    <ele>235.5</ele>
   </trkpt>
   <trkpt lat="46.1870580" lon="13.7249400">
    <ele>236.0</ele>
   </trkpt>
   <trkpt lat="46.1870600" lon="13.7249820">
    <ele>236.5</ele>
   </trkpt>
   <trkpt lat="46.1870620" lon="13.7250170">
    <ele>236.8</ele>
   </trkpt>
   <trkpt lat="46.1870670" lon="13.7250530">
    <ele>237.2</ele>
   </trkpt>
   <trkpt lat="46.1870720" lon="13.7250920">
    <ele>237.6</ele>
   </trkpt>
   <trkpt lat="46.1870870" lon="13.7251350">
    <ele>238.0</ele>
   </trkpt>
   <trkpt lat="46.1871070" lon="13.7251820">
    <ele>238.5</ele>
   </trkpt>
   <trkpt lat="46.1871220" lon="13.7252330">
    <ele>239.0</ele>
   </trkpt>
   <trkpt lat="46.1871350" lon="13.7252770">
    <ele>239.5</ele>
   </trkpt>
   <trkpt lat="46.1871380" lon="13.7253200">
    <ele>239.9</ele>
   </trkpt>
   <trkpt lat="46.1871420" lon="13.7253630">
    <ele>240.3</ele>
   </trkpt>
   <trkpt lat="46.1871470" lon="13.7254030">
    <ele>240.8</ele>
   </trkpt>
   <trkpt lat="46.1871550" lon="13.7254400">
    <ele>241.2</ele>
   </trkpt>
   <trkpt lat="46.1871630" lon="13.7254770">
    <ele>241.6</ele>
   </trkpt>
   <trkpt lat="46.1871750" lon="13.7255080">
    <ele>242.0</ele>
   </trkpt>
   <trkpt lat="46.1871800" lon="13.7255350">
    <ele>242.4</ele>
   </trkpt>
   <trkpt lat="46.1871820" lon="13.7255670">
    <ele>242.8</ele>
   </trkpt>
   <trkpt lat="46.1871870" lon="13.7255980">
    <ele>243.2</ele>
   </trkpt>
   <trkpt lat="46.1871930" lon="13.7256250">
    <ele>243.6</ele>
   </trkpt>
   <trkpt lat="46.1872030" lon="13.7256530">
    <ele>244.0</ele>
   </trkpt>
   <trkpt lat="46.1872230" lon="13.7256870">
    <ele>244.7</ele>
   </trkpt>
   <trkpt lat="46.1872420" lon="13.7257170">
    <ele>245.3</ele>
   </trkpt>
   <trkpt lat="46.1872580" lon="13.7257450">
    <ele>245.8</ele>
   </trkpt>
   <trkpt lat="46.1872730" lon="13.7257800">
    <ele>246.4</ele>
   </trkpt>
   <trkpt lat="46.1872780" lon="13.7258120">
    <ele>246.9</ele>
   </trkpt>
   <trkpt lat="46.1872780" lon="13.7258500">
    <ele>247.2</ele>
   </trkpt>
   <trkpt lat="46.1872830" lon="13.7258930">
    <ele>247.5</ele>
   </trkpt>
   <trkpt lat="46.1872820" lon="13.7259380">
    <ele>247.8</ele>
   </trkpt>
   <trkpt lat="46.1872850" lon="13.7259830">
    <ele>248.0</ele>
   </trkpt>
   <trkpt lat="46.1872920" lon="13.7260350">
    <ele>248.2</ele>
   </trkpt>
   <trkpt lat="46.1873080" lon="13.7260870">
    <ele>248.3</ele>
   </trkpt>
   <trkpt lat="46.1873270" lon="13.7261350">
    <ele>248.5</ele>
   </trkpt>
   <trkpt lat="46.1873480" lon="13.7261730">
    <ele>248.6</ele>
   </trkpt>
   <trkpt lat="46.1873800" lon="13.7262130">
    <ele>248.9</ele>
   </trkpt>
   <trkpt lat="46.1874030" lon="13.7262530">
    <ele>249.1</ele>
   </trkpt>
   <trkpt lat="46.1874250" lon="13.7262880">
    <ele>249.5</ele>
   </trkpt>
   <trkpt lat="46.1874380" lon="13.7263300">
    <ele>249.8</ele>
   </trkpt>
   <trkpt lat="46.1874500" lon="13.7263700">
    <ele>250.1</ele>
   </trkpt>
   <trkpt lat="46.1874600" lon="13.7264030">
    <ele>250.4</ele>
   </trkpt>
   <trkpt lat="46.1874720" lon="13.7264320">
    <ele>250.7</ele>
   </trkpt>
   <trkpt lat="46.1874780" lon="13.7264600">
    <ele>250.9</ele>
   </trkpt>
   <trkpt lat="46.1874870" lon="13.7264870">
    <ele>251.1</ele>
   </trkpt>
   <trkpt lat="46.1874950" lon="13.7265180">
    <ele>251.4</ele>
   </trkpt>
   <trkpt lat="46.1875000" lon="13.7265550">
    <ele>251.7</ele>
   </trkpt>
   <trkpt lat="46.1875080" lon="13.7265900">
    <ele>252.0</ele>
   </trkpt>
   <trkpt lat="46.1875180" lon="13.7266250">
    <ele>252.4</ele>
   </trkpt>
   <trkpt lat="46.1875200" lon="13.7266670">
    <ele>252.8</ele>
   </trkpt>
   <trkpt lat="46.1875200" lon="13.7267030">
    <ele>253.1</ele>
   </trkpt>
   <trkpt lat="46.1875220" lon="13.7267370">
    <ele>253.4</ele>
   </trkpt>
   <trkpt lat="46.1875320" lon="13.7267650">
    <ele>253.7</ele>
   </trkpt>
   <trkpt lat="46.1875430" lon="13.7267900">
    <ele>254.0</ele>
   </trkpt>
   <trkpt lat="46.1875580" lon="13.7268150">
    <ele>254.3</ele>
   </trkpt>
   <trkpt lat="46.1875730" lon="13.7268420">
    <ele>254.7</ele>
   </trkpt>
   <trkpt lat="46.1875880" lon="13.7268700">
    <ele>255.0</ele>
   </trkpt>
   <trkpt lat="46.1876030" lon="13.7269030">
    <ele>255.4</ele>
   </trkpt>
   <trkpt lat="46.1876130" lon="13.7269330">
    <ele>255.7</ele>
   </trkpt>
   <trkpt lat="46.1876180" lon="13.7269650">
    <ele>255.9</ele>
   </trkpt>
   <trkpt lat="46.1876220" lon="13.7270030">
    <ele>256.3</ele>
   </trkpt>
   <trkpt lat="46.1876270" lon="13.7270500">
    <ele>256.8</ele>
   </trkpt>
   <trkpt lat="46.1876330" lon="13.7270970">
    <ele>257.2</ele>
   </trkpt>
   <trkpt lat="46.1876400" lon="13.7271380">
    <ele>257.6</ele>
   </trkpt>
   <trkpt lat="46.1876500" lon="13.7271700">
    <ele>257.9</ele>
   </trkpt>
   <trkpt lat="46.1876650" lon="13.7271930">
    <ele>258.2</ele>
   </trkpt>
   <trkpt lat="46.1876850" lon="13.7272150">
    <ele>258.4</ele>
   </trkpt>
   <trkpt lat="46.1877080" lon="13.7272400">
    <ele>258.8</ele>
   </trkpt>
   <trkpt lat="46.1877370" lon="13.7272700">
    <ele>259.2</ele>
   </trkpt>
   <trkpt lat="46.1877620" lon="13.7273120">
    <ele>259.6</ele>
   </trkpt>
   <trkpt lat="46.1877850" lon="13.7273570">
    <ele>260.1</ele>
   </trkpt>
   <trkpt lat="46.1878100" lon="13.7273930">
    <ele>260.6</ele>
   </trkpt>
   <trkpt lat="46.1878380" lon="13.7274220">
    <ele>261.1</ele>
   </trkpt>
   <trkpt lat="46.1878630" lon="13.7274570">
    <ele>261.6</ele>
   </trkpt>
   <trkpt lat="46.1878900" lon="13.7274930">
    <ele>262.2</ele>
   </trkpt>
   <trkpt lat="46.1879150" lon="13.7275330">
    <ele>262.8</ele>
   </trkpt>
   <trkpt lat="46.1879380" lon="13.7275780">
    <ele>263.4</ele>
   </trkpt>
   <trkpt lat="46.1879630" lon="13.7276180">
    <ele>263.9</ele>
   </trkpt>
   <trkpt lat="46.1879880" lon="13.7276570">
    <ele>264.5</ele>
   </trkpt>
   <trkpt lat="46.1880170" lon="13.7276950">
    <ele>265.0</ele>
   </trkpt>
   <trkpt lat="46.1880480" lon="13.7277180">
    <ele>265.5</ele>
   </trkpt>
   <trkpt lat="46.1880730" lon="13.7277400">
    <ele>265.9</ele>
   </trkpt>
   <trkpt lat="46.1881020" lon="13.7277680">
    <ele>266.4</ele>
   </trkpt>
   <trkpt lat="46.1881220" lon="13.7277970">
    <ele>266.8</ele>
   </trkpt>
   <trkpt lat="46.1881430" lon="13.7278350">
    <ele>267.3</ele>
   </trkpt>
   <trkpt lat="46.1881670" lon="13.7278700">
    <ele>267.7</ele>
   </trkpt>
   <trkpt lat="46.1881920" lon="13.7279070">
    <ele>268.2</ele>
   </trkpt>
   <trkpt lat="46.1882100" lon="13.7279380">
    <ele>268.6</ele>
   </trkpt>
   <trkpt lat="46.1882330" lon="13.7279650">
    <ele>269.0</ele>
   </trkpt>
   <trkpt lat="46.1882520" lon="13.7279930">
    <ele>269.4</ele>
   </trkpt>
   <trkpt lat="46.1882700" lon="13.7280150">
    <ele>269.7</ele>
   </trkpt>
   <trkpt lat="46.1882870" lon="13.7280370">
    <ele>270.0</ele>
   </trkpt>
   <trkpt lat="46.1883020" lon="13.7280600">
    <ele>270.3</ele>
   </trkpt>
   <trkpt lat="46.1883180" lon="13.7280800">
    <ele>270.6</ele>
   </trkpt>
   <trkpt lat="46.1883380" lon="13.7281030">
    <ele>271.0</ele>
   </trkpt>
   <trkpt lat="46.1883530" lon="13.7281300">
    <ele>271.3</ele>
   </trkpt>
   <trkpt lat="46.1883650" lon="13.7281570">
    <ele>271.6</ele>
   </trkpt>
   <trkpt lat="46.1883780" lon="13.7281830">
    <ele>271.9</ele>
   </trkpt>
   <trkpt lat="46.1883980" lon="13.7282080">
    <ele>272.3</ele>
   </trkpt>
   <trkpt lat="46.1884150" lon="13.7282320">
    <ele>272.6</ele>
   </trkpt>
   <trkpt lat="46.1884320" lon="13.7282570">
    <ele>272.9</ele>
   </trkpt>
   <trkpt lat="46.1884680" lon="13.7282870">
    <ele>273.5</ele>
   </trkpt>
   <trkpt lat="46.1885050" lon="13.7283150">
    <ele>274.0</ele>
   </trkpt>
   <trkpt lat="46.1885330" lon="13.7283470">
    <ele>274.5</ele>
   </trkpt>
   <trkpt lat="46.1885570" lon="13.7283800">
    <ele>275.0</ele>
   </trkpt>
   <trkpt lat="46.1885730" lon="13.7284130">
    <ele>275.4</ele>
   </trkpt>
   <trkpt lat="46.1885970" lon="13.7284480">
    <ele>275.8</ele>
   </trkpt>
   <trkpt lat="46.1886200" lon="13.7284830">
    <ele>276.3</ele>
   </trkpt>
   <trkpt lat="46.1886400" lon="13.7285180">
    <ele>276.8</ele>
   </trkpt>
   <trkpt lat="46.1886580" lon="13.7285520">
    <ele>277.2</ele>
   </trkpt>
   <trkpt lat="46.1886780" lon="13.7285770">
    <ele>277.6</ele>
   </trkpt>
   <trkpt lat="46.1886980" lon="13.7285980">
    <ele>278.0</ele>
   </trkpt>
   <trkpt lat="46.1887200" lon="13.7286120">
    <ele>278.3</ele>
   </trkpt>
   <trkpt lat="46.1887420" lon="13.7286280">
    <ele>278.7</ele>
   </trkpt>
   <trkpt lat="46.1887620" lon="13.7286470">
    <ele>279.0</ele>
   </trkpt>
   <trkpt lat="46.1887820" lon="13.7286670">
    <ele>279.4</ele>
   </trkpt>
   <trkpt lat="46.1888070" lon="13.7286850">
    <ele>279.8</ele>
   </trkpt>
   <trkpt lat="46.1888320" lon="13.7287030">
    <ele>280.2</ele>
   </trkpt>
   <trkpt lat="46.1888550" lon="13.7287200">
    <ele>280.6</ele>
   </trkpt>
   <trkpt lat="46.1888730" lon="13.7287430">
    <ele>281.0</ele>
   </trkpt>
   <trkpt lat="46.1888880" lon="13.7287680">
    <ele>281.4</ele>
   </trkpt>
   <trkpt lat="46.1888980" lon="13.7287920">
    <ele>281.7</ele>
   </trkpt>
   <trkpt lat="46.1889030" lon="13.7288170">
    <ele>282.0</ele>
   </trkpt>
   <trkpt lat="46.1889130" lon="13.7288450">
    <ele>282.3</ele>
   </trkpt>
   <trkpt lat="46.1889170" lon="13.7288820">
    <ele>282.7</ele>
   </trkpt>
   <trkpt lat="46.1889150" lon="13.7289220">
    <ele>283.2</ele>
   </trkpt>
   <trkpt lat="46.1889180" lon="13.7289570">
    <ele>283.6</ele>
   </trkpt>
   <trkpt lat="46.1889250" lon="13.7289880">
    <ele>284.0</ele>
   </trkpt>
   <trkpt lat="46.1889330" lon="13.7290100">
    <ele>284.3</ele>
   </trkpt>
   <trkpt lat="46.1889420" lon="13.7290280">
    <ele>284.6</ele>
   </trkpt>
   <trkpt lat="46.1889580" lon="13.7290420">
    <ele>284.9</ele>
   </trkpt>
   <trkpt lat="46.1889720" lon="13.7290480">
    <ele>285.1</ele>
   </trkpt>
   <trkpt lat="46.1889730" lon="13.7290450">
    <ele>285.1</ele>
   </trkpt>
   <trkpt lat="46.1889700" lon="13.7290300">
    <ele>285.3</ele>
   </trkpt>
   <trkpt lat="46.1889700" lon="13.7290080">
    <ele>285.4</ele>
   </trkpt>
   <trkpt lat="46.1889720" lon="13.7289830">
    <ele>285.6</ele>
   </trkpt>
   <trkpt lat="46.1889730" lon="13.7289600">
    <ele>285.8</ele>
   </trkpt>
   <trkpt lat="46.1889780" lon="13.7289350">
    <ele>286.0</ele>
   </trkpt>
   <trkpt lat="46.1889850" lon="13.7289030">
    <ele>286.3</ele>
   </trkpt>
   <trkpt lat="46.1889880" lon="13.7288720">
    <ele>286.5</ele>
   </trkpt>
   <trkpt lat="46.1889850" lon="13.7288470">
    <ele>286.7</ele>
   </trkpt>
   <trkpt lat="46.1889750" lon="13.7288220">
    <ele>286.9</ele>
   </trkpt>
   <trkpt lat="46.1889620" lon="13.7287930">
    <ele>287.2</ele>
   </trkpt>
   <trkpt lat="46.1889550" lon="13.7287720">
    <ele>287.3</ele>
   </trkpt>
   <trkpt lat="46.1889450" lon="13.7287550">
    <ele>287.5</ele>
   </trkpt>
   <trkpt lat="46.1889280" lon="13.7287320">
    <ele>287.7</ele>
   </trkpt>
   <trkpt lat="46.1889120" lon="13.7287070">
    <ele>288.0</ele>
   </trkpt>
   <trkpt lat="46.1889020" lon="13.7286780">
    <ele>288.3</ele>
   </trkpt>
   <trkpt lat="46.1888900" lon="13.7286500">
    <ele>288.5</ele>
   </trkpt>
   <trkpt lat="46.1888770" lon="13.7286200">
    <ele>288.8</ele>
   </trkpt>
   <trkpt lat="46.1888670" lon="13.7285880">
    <ele>289.1</ele>
   </trkpt>
   <trkpt lat="46.1888530" lon="13.7285530">
    <ele>289.5</ele>
   </trkpt>
   <trkpt lat="46.1888380" lon="13.7285180">
    <ele>289.8</ele>
   </trkpt>
   <trkpt lat="46.1888270" lon="13.7284850">
    <ele>290.2</ele>
   </trkpt>
   <trkpt lat="46.1888170" lon="13.7284470">
    <ele>290.5</ele>
   </trkpt>
   <trkpt lat="46.1888030" lon="13.7284070">
    <ele>291.0</ele>
   </trkpt>
   <trkpt lat="46.1887880" lon="13.7283680">
    <ele>291.4</ele>
   </trkpt>
   <trkpt lat="46.1887780" lon="13.7283300">
    <ele>291.8</ele>
   </trkpt>
   <trkpt lat="46.1887700" lon="13.7282900">
    <ele>292.2</ele>
   </trkpt>
   <trkpt lat="46.1887580" lon="13.7282480">
    <ele>292.6</ele>
   </trkpt>
   <trkpt lat="46.1887470" lon="13.7282070">
    <ele>293.0</ele>
   </trkpt>
   <trkpt lat="46.1887330" lon="13.7281730">
    <ele>293.3</ele>
   </trkpt>
   <trkpt lat="46.1887200" lon="13.7281380">
    <ele>293.7</ele>
   </trkpt>
   <trkpt lat="46.1887020" lon="13.7281000">
    <ele>294.1</ele>
   </trkpt>
   <trkpt lat="46.1886820" lon="13.7280570">
    <ele>294.5</ele>
   </trkpt>
   <trkpt lat="46.1886670" lon="13.7280080">
    <ele>294.9</ele>
   </trkpt>
   <trkpt lat="46.1886550" lon="13.7279650">
    <ele>295.3</ele>
   </trkpt>
   <trkpt lat="46.1886450" lon="13.7279200">
    <ele>295.7</ele>
   </trkpt>
   <trkpt lat="46.1886320" lon="13.7278750">
    <ele>296.2</ele>
   </trkpt>
   <trkpt lat="46.1886130" lon="13.7278330">
    <ele>296.6</ele>
   </trkpt>
   <trkpt lat="46.1885980" lon="13.7277880">
    <ele>297.1</ele>
   </trkpt>
   <trkpt lat="46.1885870" lon="13.7277480">
    <ele>297.5</ele>
   </trkpt>
   <trkpt lat="46.1885650" lon="13.7277000">
    <ele>298.0</ele>
   </trkpt>
   <trkpt lat="46.1885470" lon="13.7276500">
    <ele>298.5</ele>
   </trkpt>
   <trkpt lat="46.1885330" lon="13.7276000">
    <ele>299.0</ele>
   </trkpt>
   <trkpt lat="46.1885200" lon="13.7275600">
    <ele>299.4</ele>
   </trkpt>
   <trkpt lat="46.1885050" lon="13.7275220">
    <ele>299.8</ele>
   </trkpt>
   <trkpt lat="46.1884900" lon="13.7274870">
    <ele>300.1</ele>
   </trkpt>
   <trkpt lat="46.1884720" lon="13.7274500">
    <ele>300.5</ele>
   </trkpt>
   <trkpt lat="46.1884520" lon="13.7274150">
    <ele>300.9</ele>
   </trkpt>
   <trkpt lat="46.1884380" lon="13.7273850">
    <ele>301.3</ele>
   </trkpt>
   <trkpt lat="46.1884170" lon="13.7273320">
    <ele>301.9</ele>
   </trkpt>
   <trkpt lat="46.1884000" lon="13.7272750">
    <ele>302.5</ele>
   </trkpt>
   <trkpt lat="46.1883920" lon="13.7272180">
    <ele>303.1</ele>
   </trkpt>
   <trkpt lat="46.1883830" lon="13.7271800">
    <ele>303.5</ele>
   </trkpt>
   <trkpt lat="46.1883820" lon="13.7271500">
    <ele>303.8</ele>
   </trkpt>
   <trkpt lat="46.1883780" lon="13.7271170">
    <ele>304.2</ele>
   </trkpt>
   <trkpt lat="46.1883770" lon="13.7270800">
    <ele>304.5</ele>
   </trkpt>
   <trkpt lat="46.1883750" lon="13.7270370">
    <ele>305.0</ele>
   </trkpt>
   <trkpt lat="46.1883650" lon="13.7270020">
    <ele>305.4</ele>
   </trkpt>
   <trkpt lat="46.1883470" lon="13.7269770">
    <ele>305.7</ele>
   </trkpt>
   <trkpt lat="46.1883180" lon="13.7269570">
    <ele>306.2</ele>
   </trkpt>
   <trkpt lat="46.1882880" lon="13.7269250">
    <ele>306.7</ele>
   </trkpt>
   <trkpt lat="46.1882730" lon="13.7269000">
    <ele>307.0</ele>
   </trkpt>
   <trkpt lat="46.1882650" lon="13.7268650">
    <ele>307.4</ele>
   </trkpt>
   <trkpt lat="46.1882580" lon="13.7268220">
    <ele>307.8</ele>
   </trkpt>
   <trkpt lat="46.1882380" lon="13.7267850">
    <ele>308.3</ele>
   </trkpt>
   <trkpt lat="46.1882320" lon="13.7267480">
    <ele>308.6</ele>
   </trkpt>
   <trkpt lat="46.1882350" lon="13.7267020">
    <ele>309.1</ele>
   </trkpt>
   <trkpt lat="46.1882400" lon="13.7266570">
    <ele>309.5</ele>
   </trkpt>
   <trkpt lat="46.1882520" lon="13.7266120">
    <ele>310.0</ele>
   </trkpt>
   <trkpt lat="46.1882630" lon="13.7265670">
    <ele>310.4</ele>
   </trkpt>
   <trkpt lat="46.1882670" lon="13.7265230">
    <ele>310.8</ele>
   </trkpt>
   <trkpt lat="46.1882620" lon="13.7264880">
    <ele>311.1</ele>
   </trkpt>
   <trkpt lat="46.1882600" lon="13.7264630">
    <ele>311.3</ele>
   </trkpt>
   <trkpt lat="46.1882470" lon="13.7264320">
    <ele>311.5</ele>
   </trkpt>
   <trkpt lat="46.1882320" lon="13.7263980">
    <ele>311.5</ele>
   </trkpt>
   <trkpt lat="46.1882000" lon="13.7263750">
    <ele>311.6</ele>
   </trkpt>
   <trkpt lat="46.1881630" lon="13.7263600">
    <ele>311.7</ele>
   </trkpt>
   <trkpt lat="46.1881270" lon="13.7263520">
    <ele>311.7</ele>
   </trkpt>
   <trkpt lat="46.1880900" lon="13.7263400">
    <ele>311.8</ele>
   </trkpt>
   <trkpt lat="46.1880600" lon="13.7263100">
    <ele>311.8</ele>
   </trkpt>
   <trkpt lat="46.1880530" lon="13.7262700">
    <ele>311.9</ele>
   </trkpt>
   <trkpt lat="46.1880470" lon="13.7262280">
    <ele>312.1</ele>
   </trkpt>
   <trkpt lat="46.1880580" lon="13.7262200">
    <ele>312.2</ele>
   </trkpt>
   <trkpt lat="46.1880600" lon="13.7262000">
    <ele>312.3</ele>
   </trkpt>
   <trkpt lat="46.1880630" lon="13.7261770">
    <ele>312.5</ele>
   </trkpt>
   <trkpt lat="46.1880620" lon="13.7261530">
    <ele>312.6</ele>
   </trkpt>
   <trkpt lat="46.1880570" lon="13.7261320">
    <ele>312.7</ele>
   </trkpt>
   <trkpt lat="46.1880570" lon="13.7261100">
    <ele>312.9</ele>
   </trkpt>
   <trkpt lat="46.1880580" lon="13.7260830">
    <ele>313.0</ele>
   </trkpt>
   <trkpt lat="46.1880670" lon="13.7260570">
    <ele>313.3</ele>
   </trkpt>
   <trkpt lat="46.1880830" lon="13.7260230">
    <ele>313.6</ele>
   </trkpt>
   <trkpt lat="46.1881000" lon="13.7259870">
    <ele>313.9</ele>
   </trkpt>
   <trkpt lat="46.1881120" lon="13.7259520">
    <ele>314.2</ele>
   </trkpt>
   <trkpt lat="46.1881250" lon="13.7259130">
    <ele>314.6</ele>
   </trkpt>
   <trkpt lat="46.1881420" lon="13.7258900">
    <ele>314.9</ele>
   </trkpt>
   <trkpt lat="46.1881580" lon="13.7258650">
    <ele>315.2</ele>
   </trkpt>
   <trkpt lat="46.1881720" lon="13.7258350">
    <ele>315.5</ele>
   </trkpt>
   <trkpt lat="46.1881870" lon="13.7258070">
    <ele>315.9</ele>
   </trkpt>
   <trkpt lat="46.1881980" lon="13.7257770">
    <ele>316.2</ele>
   </trkpt>
   <trkpt lat="46.1882150" lon="13.7257450">
    <ele>316.5</ele>
   </trkpt>
   <trkpt lat="46.1882280" lon="13.7257080">
    <ele>316.9</ele>
   </trkpt>
   <trkpt lat="46.1882280" lon="13.7256670">
    <ele>317.3</ele>
   </trkpt>
   <trkpt lat="46.1882330" lon="13.7256280">
    <ele>317.6</ele>
   </trkpt>
   <trkpt lat="46.1882420" lon="13.7255920">
    <ele>317.9</ele>
   </trkpt>
   <trkpt lat="46.1882420" lon="13.7255400">
    <ele>318.5</ele>
   </trkpt>
   <trkpt lat="46.1882430" lon="13.7254900">
    <ele>318.9</ele>
   </trkpt>
   <trkpt lat="46.1882500" lon="13.7254430">
    <ele>319.4</ele>
   </trkpt>
   <trkpt lat="46.1882650" lon="13.7254000">
    <ele>319.9</ele>
   </trkpt>
   <trkpt lat="46.1882730" lon="13.7253570">
    <ele>320.3</ele>
   </trkpt>
   <trkpt lat="46.1882750" lon="13.7253170">
    <ele>320.7</ele>
   </trkpt>
   <trkpt lat="46.1882680" lon="13.7252780">
    <ele>321.0</ele>
   </trkpt>
   <trkpt lat="46.1882550" lon="13.7252380">
    <ele>321.4</ele>
   </trkpt>
   <trkpt lat="46.1882470" lon="13.7251980">
    <ele>321.7</ele>
   </trkpt>
   <trkpt lat="46.1882450" lon="13.7251570">
    <ele>322.0</ele>
   </trkpt>
   <trkpt lat="46.1882470" lon="13.7251080">
    <ele>322.4</ele>
   </trkpt>
   <trkpt lat="46.1882420" lon="13.7250500">
    <ele>322.9</ele>
   </trkpt>
   <trkpt lat="46.1882400" lon="13.7249930">
    <ele>323.4</ele>
   </trkpt>
   <trkpt lat="46.1882450" lon="13.7249250">
    <ele>324.1</ele>
   </trkpt>
   <trkpt lat="46.1882520" lon="13.7248600">
    <ele>324.7</ele>
   </trkpt>
   <trkpt lat="46.1882470" lon="13.7248000">
    <ele>325.3</ele>
   </trkpt>
   <trkpt lat="46.1882580" lon="13.7247480">
    <ele>325.6</ele>
   </trkpt>
   <trkpt lat="46.1882820" lon="13.7247200">
    <ele>326.0</ele>
   </trkpt>
   <trkpt lat="46.1883080" lon="13.7246920">
    <ele>326.5</ele>
   </trkpt>
   <trkpt lat="46.1883370" lon="13.7246850">
    <ele>327.0</ele>
   </trkpt>
   <trkpt lat="46.1883630" lon="13.7246880">
    <ele>327.3</ele>
   </trkpt>
   <trkpt lat="46.1883850" lon="13.7246970">
    <ele>327.7</ele>
   </trkpt>
   <trkpt lat="46.1883970" lon="13.7247430">
    <ele>328.2</ele>
   </trkpt>
   <trkpt lat="46.1883980" lon="13.7247880">
    <ele>328.6</ele>
   </trkpt>
   <trkpt lat="46.1883950" lon="13.7248420">
    <ele>329.1</ele>
   </trkpt>
   <trkpt lat="46.1884030" lon="13.7248920">
    <ele>329.5</ele>
   </trkpt>
   <trkpt lat="46.1884130" lon="13.7249180">
    <ele>329.8</ele>
   </trkpt>
   <trkpt lat="46.1884250" lon="13.7249630">
    <ele>330.2</ele>
   </trkpt>
   <trkpt lat="46.1884320" lon="13.7250080">
    <ele>330.6</ele>
   </trkpt>
   <trkpt lat="46.1884320" lon="13.7250420">
    <ele>330.8</ele>
   </trkpt>
   <trkpt lat="46.1884280" lon="13.7250750">
    <ele>331.1</ele>
   </trkpt>
   <trkpt lat="46.1884270" lon="13.7251130">
    <ele>331.4</ele>
   </trkpt>
   <trkpt lat="46.1884250" lon="13.7251500">
    <ele>331.7</ele>
   </trkpt>
   <trkpt lat="46.1884180" lon="13.7251920">
    <ele>332.1</ele>
   </trkpt>
   <trkpt lat="46.1884120" lon="13.7252250">
    <ele>332.3</ele>
   </trkpt>
   <trkpt lat="46.1884000" lon="13.7252620">
    <ele>332.7</ele>
   </trkpt>
   <trkpt lat="46.1883970" lon="13.7253020">
    <ele>333.0</ele>
   </trkpt>
   <trkpt lat="46.1883970" lon="13.7253450">
    <ele>333.3</ele>
   </trkpt>
   <trkpt lat="46.1883980" lon="13.7253980">
    <ele>333.7</ele>
   </trkpt>
   <trkpt lat="46.1884030" lon="13.7254450">
    <ele>334.1</ele>
   </trkpt>
   <trkpt lat="46.1884030" lon="13.7254900">
    <ele>334.5</ele>
   </trkpt>
   <trkpt lat="46.1884030" lon="13.7255380">
    <ele>334.8</ele>
   </trkpt>
   <trkpt lat="46.1883970" lon="13.7255880">
    <ele>335.2</ele>
   </trkpt>
   <trkpt lat="46.1883920" lon="13.7256270">
    <ele>335.6</ele>
   </trkpt>
   <trkpt lat="46.1883900" lon="13.7256600">
    <ele>335.8</ele>
   </trkpt>
   <trkpt lat="46.1883800" lon="13.7257070">
    <ele>336.2</ele>
   </trkpt>
   <trkpt lat="46.1883700" lon="13.7257480">
    <ele>336.6</ele>
   </trkpt>
   <trkpt lat="46.1883630" lon="13.7257830">
    <ele>336.9</ele>
   </trkpt>
   <trkpt lat="46.1883530" lon="13.7258230">
    <ele>337.2</ele>
   </trkpt>
   <trkpt lat="46.1883480" lon="13.7258630">
    <ele>337.6</ele>
   </trkpt>
   <trkpt lat="46.1883500" lon="13.7259070">
    <ele>338.0</ele>
   </trkpt>
   <trkpt lat="46.1883530" lon="13.7259470">
    <ele>338.3</ele>
   </trkpt>
   <trkpt lat="46.1883600" lon="13.7259850">
    <ele>338.7</ele>
   </trkpt>
   <trkpt lat="46.1883650" lon="13.7260200">
    <ele>339.1</ele>
   </trkpt>
   <trkpt lat="46.1883680" lon="13.7260500">
    <ele>339.4</ele>
   </trkpt>
   <trkpt lat="46.1883780" lon="13.7260700">
    <ele>339.6</ele>
   </trkpt>
   <trkpt lat="46.1884020" lon="13.7260870">
    <ele>339.9</ele>
   </trkpt>
   <trkpt lat="46.1884250" lon="13.7260970">
    <ele>340.2</ele>
   </trkpt>
   <trkpt lat="46.1884450" lon="13.7261000">
    <ele>340.5</ele>
   </trkpt>
   <trkpt lat="46.1884630" lon="13.7261030">
    <ele>340.8</ele>
   </trkpt>
   <trkpt lat="46.1884830" lon="13.7261030">
    <ele>341.0</ele>
   </trkpt>
   <trkpt lat="46.1885070" lon="13.7261050">
    <ele>341.4</ele>
   </trkpt>
   <trkpt lat="46.1885250" lon="13.7261120">
    <ele>341.6</ele>
   </trkpt>
   <trkpt lat="46.1885500" lon="13.7261280">
    <ele>342.0</ele>
   </trkpt>
   <trkpt lat="46.1885670" lon="13.7261650">
    <ele>342.4</ele>
   </trkpt>
   <trkpt lat="46.1885780" lon="13.7262000">
    <ele>342.8</ele>
   </trkpt>
   <trkpt lat="46.1885870" lon="13.7262320">
    <ele>343.1</ele>
   </trkpt>
   <trkpt lat="46.1885920" lon="13.7262620">
    <ele>343.4</ele>
   </trkpt>
   <trkpt lat="46.1886020" lon="13.7262920">
    <ele>343.7</ele>
   </trkpt>
   <trkpt lat="46.1886130" lon="13.7263200">
    <ele>344.1</ele>
   </trkpt>
   <trkpt lat="46.1886300" lon="13.7263400">
    <ele>344.4</ele>
   </trkpt>
   <trkpt lat="46.1886500" lon="13.7263580">
    <ele>344.7</ele>
   </trkpt>
   <trkpt lat="46.1886750" lon="13.7263730">
    <ele>345.1</ele>
   </trkpt>
   <trkpt lat="46.1886950" lon="13.7263880">
    <ele>345.4</ele>
   </trkpt>
   <trkpt lat="46.1887220" lon="13.7264020">
    <ele>345.8</ele>
   </trkpt>
   <trkpt lat="46.1887450" lon="13.7264130">
    <ele>346.2</ele>
   </trkpt>
   <trkpt lat="46.1887630" lon="13.7264330">
    <ele>346.6</ele>
   </trkpt>
   <trkpt lat="46.1887770" lon="13.7264630">
    <ele>347.0</ele>
   </trkpt>
   <trkpt lat="46.1887920" lon="13.7264920">
    <ele>347.4</ele>
   </trkpt>
   <trkpt lat="46.1888020" lon="13.7265180">
    <ele>347.8</ele>
   </trkpt>
   <trkpt lat="46.1888080" lon="13.7265480">
    <ele>348.1</ele>
   </trkpt>
   <trkpt lat="46.1888180" lon="13.7265800">
    <ele>348.5</ele>
   </trkpt>
   <trkpt lat="46.1888330" lon="13.7266080">
    <ele>348.9</ele>
   </trkpt>
   <trkpt lat="46.1888500" lon="13.7266330">
    <ele>349.3</ele>
   </trkpt>
   <trkpt lat="46.1888700" lon="13.7266620">
    <ele>349.7</ele>
   </trkpt>
   <trkpt lat="46.1889000" lon="13.7267000">
    <ele>350.2</ele>
   </trkpt>
   <trkpt lat="46.1889230" lon="13.7267370">
    <ele>350.7</ele>
   </trkpt>
   <trkpt lat="46.1889370" lon="13.7267680">
    <ele>351.1</ele>
   </trkpt>
   <trkpt lat="46.1889520" lon="13.7267980">
    <ele>351.4</ele>
   </trkpt>
   <trkpt lat="46.1889700" lon="13.7268230">
    <ele>351.8</ele>
   </trkpt>
   <trkpt lat="46.1889920" lon="13.7268500">
    <ele>352.2</ele>
   </trkpt>
   <trkpt lat="46.1890120" lon="13.7268780">
    <ele>352.7</ele>
   </trkpt>
   <trkpt lat="46.1890270" lon="13.7269070">
    <ele>353.1</ele>
   </trkpt>
   <trkpt lat="46.1890420" lon="13.7269300">
    <ele>353.4</ele>
   </trkpt>
   <trkpt lat="46.1890630" lon="13.7269470">
    <ele>353.8</ele>
   </trkpt>
   <trkpt lat="46.1890970" lon="13.7269630">
    <ele>354.3</ele>
   </trkpt>
   <trkpt lat="46.1891300" lon="13.7269780">
    <ele>354.8</ele>
   </trkpt>
   <trkpt lat="46.1891520" lon="13.7270150">
    <ele>355.3</ele>
   </trkpt>
   <trkpt lat="46.1891700" lon="13.7270600">
    <ele>355.8</ele>
   </trkpt>
   <trkpt lat="46.1891900" lon="13.7271000">
    <ele>356.3</ele>
   </trkpt>
   <trkpt lat="46.1892150" lon="13.7271270">
    <ele>356.7</ele>
   </trkpt>
   <trkpt lat="46.1892300" lon="13.7271520">
    <ele>357.1</ele>
   </trkpt>
   <trkpt lat="46.1892400" lon="13.7271780">
    <ele>357.4</ele>
   </trkpt>
   <trkpt lat="46.1892480" lon="13.7272100">
    <ele>357.7</ele>
   </trkpt>
   <trkpt lat="46.1892530" lon="13.7272450">
    <ele>358.1</ele>
   </trkpt>
   <trkpt lat="46.1892580" lon="13.7272770">
    <ele>358.4</ele>
   </trkpt>
   <trkpt lat="46.1892580" lon="13.7273120">
    <ele>358.8</ele>
   </trkpt>
   <trkpt lat="46.1892630" lon="13.7273420">
    <ele>359.1</ele>
   </trkpt>
   <trkpt lat="46.1892750" lon="13.7273680">
    <ele>359.5</ele>
   </trkpt>
   <trkpt lat="46.1892970" lon="13.7273850">
    <ele>359.8</ele>
   </trkpt>
   <trkpt lat="46.1893220" lon="13.7274030">
    <ele>360.3</ele>
   </trkpt>
   <trkpt lat="46.1893420" lon="13.7274270">
    <ele>360.7</ele>
   </trkpt>
   <trkpt lat="46.1893670" lon="13.7274520">
    <ele>361.2</ele>
   </trkpt>
   <trkpt lat="46.1893970" lon="13.7274750">
    <ele>361.8</ele>
   </trkpt>
   <trkpt lat="46.1894220" lon="13.7274950">
    <ele>362.4</ele>
   </trkpt>
   <trkpt lat="46.1894250" lon="13.7274970">
    <ele>362.4</ele>
   </trkpt>
   <trkpt lat="46.1894230" lon="13.7274900">
    <ele>362.5</ele>
   </trkpt>
   <trkpt lat="46.1894150" lon="13.7274770">
    <ele>362.7</ele>
   </trkpt>
   <trkpt lat="46.1894030" lon="13.7274570">
    <ele>363.1</ele>
   </trkpt>
   <trkpt lat="46.1893850" lon="13.7274330">
    <ele>363.5</ele>
   </trkpt>
   <trkpt lat="46.1893750" lon="13.7274070">
    <ele>363.9</ele>
   </trkpt>
   <trkpt lat="46.1893700" lon="13.7273820">
    <ele>364.2</ele>
   </trkpt>
   <trkpt lat="46.1893630" lon="13.7273530">
    <ele>364.5</ele>
   </trkpt>
   <trkpt lat="46.1893580" lon="13.7273270">
    <ele>364.8</ele>
   </trkpt>
   <trkpt lat="46.1893580" lon="13.7272970">
    <ele>365.1</ele>
   </trkpt>
   <trkpt lat="46.1893600" lon="13.7272680">
    <ele>365.4</ele>
   </trkpt>
   <trkpt lat="46.1893630" lon="13.7272370">
    <ele>365.7</ele>
   </trkpt>
   <trkpt lat="46.1893580" lon="13.7272080">
    <ele>366.0</ele>
   </trkpt>
   <trkpt lat="46.1893470" lon="13.7271780">
    <ele>366.3</ele>
   </trkpt>
   <trkpt lat="46.1893370" lon="13.7271470">
    <ele>366.6</ele>
   </trkpt>
   <trkpt lat="46.1893280" lon="13.7271150">
    <ele>366.9</ele>
   </trkpt>
   <trkpt lat="46.1893220" lon="13.7270780">
    <ele>367.2</ele>
   </trkpt>
   <trkpt lat="46.1893180" lon="13.7270400">
    <ele>367.5</ele>
   </trkpt>
   <trkpt lat="46.1893120" lon="13.7270030">
    <ele>367.8</ele>
   </trkpt>
   <trkpt lat="46.1893000" lon="13.7269650">
    <ele>368.2</ele>
   </trkpt>
   <trkpt lat="46.1892870" lon="13.7269320">
    <ele>368.5</ele>
   </trkpt>
   <trkpt lat="46.1892750" lon="13.7268980">
    <ele>368.8</ele>
   </trkpt>
   <trkpt lat="46.1892670" lon="13.7268700">
    <ele>369.1</ele>
   </trkpt>
   <trkpt lat="46.1892600" lon="13.7268430">
    <ele>369.4</ele>
   </trkpt>
   <trkpt lat="46.1892570" lon="13.7268280">
    <ele>369.5</ele>
   </trkpt>
   <trkpt lat="46.1892520" lon="13.7268100">
    <ele>369.7</ele>
   </trkpt>
   <trkpt lat="46.1892450" lon="13.7267920">
    <ele>369.9</ele>
   </trkpt>
   <trkpt lat="46.1892350" lon="13.7267680">
    <ele>370.2</ele>
   </trkpt>
   <trkpt lat="46.1892200" lon="13.7267420">
    <ele>370.5</ele>
   </trkpt>
   <trkpt lat="46.1892030" lon="13.7267080">
    <ele>370.9</ele>
   </trkpt>
   <trkpt lat="46.1891900" lon="13.7266730">
    <ele>371.3</ele>
   </trkpt>
   <trkpt lat="46.1891780" lon="13.7266370">
    <ele>371.7</ele>
   </trkpt>
   <trkpt lat="46.1891630" lon="13.7266000">
    <ele>372.1</ele>
   </trkpt>
   <trkpt lat="46.1891480" lon="13.7265700">
    <ele>372.4</ele>
   </trkpt>
   <trkpt lat="46.1891370" lon="13.7265400">
    <ele>372.7</ele>
   </trkpt>
   <trkpt lat="46.1891350" lon="13.7265080">
    <ele>373.0</ele>
   </trkpt>
   <trkpt lat="46.1891280" lon="13.7264820">
    <ele>373.2</ele>
   </trkpt>
   <trkpt lat="46.1891200" lon="13.7264520">
    <ele>373.5</ele>
   </trkpt>
   <trkpt lat="46.1891030" lon="13.7264220">
    <ele>373.9</ele>
   </trkpt>
   <trkpt lat="46.1890900" lon="13.7263900">
    <ele>374.2</ele>
   </trkpt>
   <trkpt lat="46.1890750" lon="13.7263580">
    <ele>374.6</ele>
   </trkpt>
   <trkpt lat="46.1890600" lon="13.7263350">
    <ele>374.9</ele>
   </trkpt>
   <trkpt lat="46.1890430" lon="13.7263080">
    <ele>375.3</ele>
   </trkpt>
   <trkpt lat="46.1890270" lon="13.7262770">
    <ele>375.7</ele>
   </trkpt>
   <trkpt lat="46.1890150" lon="13.7262470">
    <ele>376.0</ele>
   </trkpt>
   <trkpt lat="46.1890030" lon="13.7262150">
    <ele>376.4</ele>
   </trkpt>
   <trkpt lat="46.1889930" lon="13.7261880">
    <ele>376.7</ele>
   </trkpt>
   <trkpt lat="46.1889820" lon="13.7261620">
    <ele>377.0</ele>
   </trkpt>
   <trkpt lat="46.1889680" lon="13.7261330">
    <ele>377.4</ele>
   </trkpt>
   <trkpt lat="46.1889420" lon="13.7261030">
    <ele>377.9</ele>
   </trkpt>
   <trkpt lat="46.1889130" lon="13.7260720">
    <ele>378.4</ele>
   </trkpt>
   <trkpt lat="46.1888870" lon="13.7260380">
    <ele>378.9</ele>
   </trkpt>
   <trkpt lat="46.1888700" lon="13.7260020">
    <ele>379.3</ele>
   </trkpt>
   <trkpt lat="46.1888570" lon="13.7259620">
    <ele>379.8</ele>
   </trkpt>
   <trkpt lat="46.1888450" lon="13.7259200">
    <ele>380.2</ele>
   </trkpt>
   <trkpt lat="46.1888380" lon="13.7258820">
    <ele>380.5</ele>
   </trkpt>
   <trkpt lat="46.1888420" lon="13.7258470">
    <ele>380.9</ele>
   </trkpt>
   <trkpt lat="46.1888480" lon="13.7258300">
    <ele>381.5</ele>
   </trkpt>
   <trkpt lat="46.1888530" lon="13.7258320">
    <ele>381.7</ele>
   </trkpt>
   <trkpt lat="46.1888600" lon="13.7258370">
    <ele>382.1</ele>
   </trkpt>
   <trkpt lat="46.1888650" lon="13.7258430">
    <ele>382.3</ele>
   </trkpt>
   <trkpt lat="46.1888700" lon="13.7258620">
    <ele>382.6</ele>
   </trkpt>
   <trkpt lat="46.1888770" lon="13.7258850">
    <ele>382.9</ele>
   </trkpt>
   <trkpt lat="46.1888800" lon="13.7259100">
    <ele>383.3</ele>
   </trkpt>
   <trkpt lat="46.1888830" lon="13.7259330">
    <ele>383.6</ele>
   </trkpt>
   <trkpt lat="46.1888950" lon="13.7259550">
    <ele>383.9</ele>
   </trkpt>
   <trkpt lat="46.1889080" lon="13.7259730">
    <ele>384.2</ele>
   </trkpt>
   <trkpt lat="46.1889230" lon="13.7259980">
    <ele>384.6</ele>
   </trkpt>
   <trkpt lat="46.1889430" lon="13.7260220">
    <ele>385.1</ele>
   </trkpt>
   <trkpt lat="46.1889630" lon="13.7260430">
    <ele>385.5</ele>
   </trkpt>
   <trkpt lat="46.1889780" lon="13.7260600">
    <ele>385.8</ele>
   </trkpt>
   <trkpt lat="46.1889920" lon="13.7260830">
    <ele>386.1</ele>
   </trkpt>
   <trkpt lat="46.1890070" lon="13.7260980">
    <ele>386.4</ele>
   </trkpt>
   <trkpt lat="46.1890220" lon="13.7261120">
    <ele>386.7</ele>
   </trkpt>
   <trkpt lat="46.1890380" lon="13.7261280">
    <ele>387.0</ele>
   </trkpt>
   <trkpt lat="46.1890550" lon="13.7261470">
    <ele>387.3</ele>
   </trkpt>
   <trkpt lat="46.1890730" lon="13.7261720">
    <ele>387.7</ele>
   </trkpt>
   <trkpt lat="46.1890880" lon="13.7261980">
    <ele>388.0</ele>
   </trkpt>
   <trkpt lat="46.1891030" lon="13.7262180">
    <ele>388.3</ele>
   </trkpt>
   <trkpt lat="46.1891200" lon="13.7262380">
    <ele>388.6</ele>
   </trkpt>
   <trkpt lat="46.1891370" lon="13.7262550">
    <ele>388.9</ele>
   </trkpt>
   <trkpt lat="46.1891520" lon="13.7262780">
    <ele>389.2</ele>
   </trkpt>
   <trkpt lat="46.1891630" lon="13.7263000">
    <ele>389.5</ele>
   </trkpt>
   <trkpt lat="46.1891780" lon="13.7263220">
    <ele>389.8</ele>
   </trkpt>
   <trkpt lat="46.1891950" lon="13.7263500">
    <ele>390.1</ele>
   </trkpt>
   <trkpt lat="46.1892120" lon="13.7263750">
    <ele>390.5</ele>
   </trkpt>
   <trkpt lat="46.1892280" lon="13.7264050">
    <ele>390.9</ele>
   </trkpt>
   <trkpt lat="46.1892430" lon="13.7264350">
    <ele>391.3</ele>
   </trkpt>
   <trkpt lat="46.1892600" lon="13.7264630">
    <ele>391.7</ele>
   </trkpt>
   <trkpt lat="46.1892780" lon="13.7264870">
    <ele>392.0</ele>
   </trkpt>
   <trkpt lat="46.1892970" lon="13.7265120">
    <ele>392.4</ele>
   </trkpt>
   <trkpt lat="46.1893150" lon="13.7265480">
    <ele>392.9</ele>
   </trkpt>
   <trkpt lat="46.1893380" lon="13.7265820">
    <ele>393.5</ele>
   </trkpt>
   <trkpt lat="46.1893650" lon="13.7266130">
    <ele>394.0</ele>
   </trkpt>
   <trkpt lat="46.1893970" lon="13.7266380">
    <ele>394.6</ele>
   </trkpt>
   <trkpt lat="46.1894230" lon="13.7266620">
    <ele>395.1</ele>
   </trkpt>
   <trkpt lat="46.1894470" lon="13.7266870">
    <ele>395.6</ele>
   </trkpt>
   <trkpt lat="46.1894770" lon="13.7267080">
    <ele>396.1</ele>
   </trkpt>
   <trkpt lat="46.1894980" lon="13.7267300">
    <ele>396.5</ele>
   </trkpt>
   <trkpt lat="46.1895120" lon="13.7267530">
    <ele>396.9</ele>
   </trkpt>
   <trkpt lat="46.1895250" lon="13.7267820">
    <ele>397.3</ele>
   </trkpt>
   <trkpt lat="46.1895400" lon="13.7268150">
    <ele>397.7</ele>
   </trkpt>
   <trkpt lat="46.1895580" lon="13.7268450">
    <ele>398.2</ele>
   </trkpt>
   <trkpt lat="46.1895780" lon="13.7268680">
    <ele>398.7</ele>
   </trkpt>
   <trkpt lat="46.1896000" lon="13.7268880">
    <ele>399.2</ele>
   </trkpt>
   <trkpt lat="46.1896250" lon="13.7269000">
    <ele>399.7</ele>
   </trkpt>
   <trkpt lat="46.1896480" lon="13.7269070">
    <ele>400.1</ele>
   </trkpt>
   <trkpt lat="46.1896600" lon="13.7269100">
    <ele>400.5</ele>
   </trkpt>
   <trkpt lat="46.1896570" lon="13.7269070">
    <ele>400.6</ele>
   </trkpt>
   <trkpt lat="46.1896400" lon="13.7268950">
    <ele>400.8</ele>
   </trkpt>
   <trkpt lat="46.1896250" lon="13.7268780">
    <ele>401.1</ele>
   </trkpt>
   <trkpt lat="46.1896130" lon="13.7268580">
    <ele>401.3</ele>
   </trkpt>
   <trkpt lat="46.1896030" lon="13.7268370">
    <ele>401.6</ele>
   </trkpt>
   <trkpt lat="46.1895900" lon="13.7268100">
    <ele>401.8</ele>
   </trkpt>
   <trkpt lat="46.1895770" lon="13.7267830">
    <ele>402.1</ele>
   </trkpt>
   <trkpt lat="46.1895650" lon="13.7267620">
    <ele>402.4</ele>
   </trkpt>
   <trkpt lat="46.1895570" lon="13.7267330">
    <ele>402.6</ele>
   </trkpt>
   <trkpt lat="46.1895480" lon="13.7267100">
    <ele>402.8</ele>
   </trkpt>
   <trkpt lat="46.1895320" lon="13.7266780">
    <ele>403.2</ele>
   </trkpt>
   <trkpt lat="46.1895100" lon="13.7266370">
    <ele>403.6</ele>
   </trkpt>
   <trkpt lat="46.1894970" lon="13.7265950">
    <ele>404.0</ele>
   </trkpt>
   <trkpt lat="46.1894800" lon="13.7265570">
    <ele>404.3</ele>
   </trkpt>
   <trkpt lat="46.1894670" lon="13.7265170">
    <ele>404.7</ele>
   </trkpt>
   <trkpt lat="46.1894570" lon="13.7264780">
    <ele>405.1</ele>
   </trkpt>
   <trkpt lat="46.1894450" lon="13.7264380">
    <ele>405.4</ele>
   </trkpt>
   <trkpt lat="46.1894380" lon="13.7263980">
    <ele>405.8</ele>
   </trkpt>
   <trkpt lat="46.1894320" lon="13.7263600">
    <ele>406.1</ele>
   </trkpt>
   <trkpt lat="46.1894270" lon="13.7263220">
    <ele>406.4</ele>
   </trkpt>
   <trkpt lat="46.1894180" lon="13.7262850">
    <ele>406.8</ele>
   </trkpt>
   <trkpt lat="46.1894070" lon="13.7262470">
    <ele>407.1</ele>
   </trkpt>
   <trkpt lat="46.1893880" lon="13.7262100">
    <ele>407.6</ele>
   </trkpt>
   <trkpt lat="46.1893750" lon="13.7261680">
    <ele>408.0</ele>
   </trkpt>
   <trkpt lat="46.1893700" lon="13.7261230">
    <ele>408.4</ele>
   </trkpt>
   <trkpt lat="46.1893650" lon="13.7260750">
    <ele>408.9</ele>
   </trkpt>
   <trkpt lat="46.1893650" lon="13.7260230">
    <ele>409.3</ele>
   </trkpt>
   <trkpt lat="46.1893550" lon="13.7259700">
    <ele>409.9</ele>
   </trkpt>
   <trkpt lat="46.1893430" lon="13.7259180">
    <ele>410.4</ele>
   </trkpt>
   <trkpt lat="46.1893300" lon="13.7258730">
    <ele>410.9</ele>
   </trkpt>
   <trkpt lat="46.1893300" lon="13.7258320">
    <ele>411.3</ele>
   </trkpt>
   <trkpt lat="46.1893250" lon="13.7258000">
    <ele>411.7</ele>
   </trkpt>
   <trkpt lat="46.1893230" lon="13.7257680">
    <ele>412.1</ele>
   </trkpt>
   <trkpt lat="46.1893200" lon="13.7257370">
    <ele>412.4</ele>
   </trkpt>
   <trkpt lat="46.1893170" lon="13.7257100">
    <ele>412.7</ele>
   </trkpt>
   <trkpt lat="46.1893130" lon="13.7256850">
    <ele>413.0</ele>
   </trkpt>
   <trkpt lat="46.1893080" lon="13.7256630">
    <ele>413.3</ele>
   </trkpt>
   <trkpt lat="46.1893050" lon="13.7256350">
    <ele>413.6</ele>
   </trkpt>
   <trkpt lat="46.1893070" lon="13.7256100">
    <ele>413.9</ele>
   </trkpt>
   <trkpt lat="46.1893080" lon="13.7256030">
    <ele>414.0</ele>
   </trkpt>
   <trkpt lat="46.1893150" lon="13.7255950">
    <ele>414.2</ele>
   </trkpt>
   <trkpt lat="46.1893270" lon="13.7255900">
    <ele>414.4</ele>
   </trkpt>
   <trkpt lat="46.1893370" lon="13.7255970">
    <ele>414.6</ele>
   </trkpt>
   <trkpt lat="46.1893470" lon="13.7256050">
    <ele>414.8</ele>
   </trkpt>
   <trkpt lat="46.1893570" lon="13.7256170">
    <ele>415.0</ele>
   </trkpt>
   <trkpt lat="46.1893630" lon="13.7256250">
    <ele>415.1</ele>
   </trkpt>
   <trkpt lat="46.1893700" lon="13.7256330">
    <ele>415.3</ele>
   </trkpt>
   <trkpt lat="46.1893770" lon="13.7256430">
    <ele>415.4</ele>
   </trkpt>
   <trkpt lat="46.1893920" lon="13.7256550">
    <ele>415.7</ele>
   </trkpt>
   <trkpt lat="46.1894030" lon="13.7256720">
    <ele>415.9</ele>
   </trkpt>
   <trkpt lat="46.1894150" lon="13.7257070">
    <ele>416.3</ele>
   </trkpt>
   <trkpt lat="46.1894400" lon="13.7257250">
    <ele>416.6</ele>
   </trkpt>
   <trkpt lat="46.1894680" lon="13.7257380">
    <ele>416.9</ele>
   </trkpt>
   <trkpt lat="46.1894770" lon="13.7257770">
    <ele>417.1</ele>
   </trkpt>
   <trkpt lat="46.1894930" lon="13.7258050">
    <ele>417.3</ele>
   </trkpt>
   <trkpt lat="46.1895130" lon="13.7258380">
    <ele>417.5</ele>
   </trkpt>
   <trkpt lat="46.1895250" lon="13.7258730">
    <ele>417.7</ele>
   </trkpt>
   <trkpt lat="46.1895400" lon="13.7259120">
    <ele>417.9</ele>
   </trkpt>
   <trkpt lat="46.1895580" lon="13.7259430">
    <ele>418.1</ele>
   </trkpt>
   <trkpt lat="46.1895770" lon="13.7259730">
    <ele>418.2</ele>
   </trkpt>
   <trkpt lat="46.1895930" lon="13.7260000">
    <ele>418.4</ele>
   </trkpt>
   <trkpt lat="46.1896100" lon="13.7260280">
    <ele>418.5</ele>
   </trkpt>
   <trkpt lat="46.1896250" lon="13.7260550">
    <ele>418.6</ele>
   </trkpt>
   <trkpt lat="46.1896450" lon="13.7260750">
    <ele>418.7</ele>
   </trkpt>
   <trkpt lat="46.1896580" lon="13.7260880">
    <ele>418.8</ele>
   </trkpt>
   <trkpt lat="46.1896680" lon="13.7260950">
    <ele>418.8</ele>
   </trkpt>
   <trkpt lat="46.1896720" lon="13.7260980">
    <ele>418.8</ele>
   </trkpt>
   <trkpt lat="46.1896730" lon="13.7260980">
    <ele>418.8</ele>
   </trkpt>
  </trkseg>
 </trk>
</gpx>
